NAVSTAR 70 (USA 251)
1 39741U 14026A   26118.10323274 -.00000081  00000+0  00000+0 0  9995
2 39741  56.5212 333.4675 0038906 326.7204  33.0737  2.00564733 87534
